{
    "links": {
        "self": "http://www.neowsapp.com/rest/v1/neo/3692863?api_key=iIulBulltgU6a56xZRHN4H3l9WmuAYTsLGpBGhQ2"
    },
    "id": "3692863",
    "neo_reference_id": "3692863",
    "name": "(2014 TZ17)",
    "designation": "2014 TZ17",
    "nasa_jpl_url": "http://ssd.jpl.nasa.gov/sbdb.cgi?sstr=3692863",
    "absolute_magnitude_h": 22.7,
    "estimated_diameter": {
        "kilometers": {
            "estimated_diameter_min": 0.0766575574,
            "estimated_diameter_max": 0.1714115092
        },
        "meters": {
            "estimated_diameter_min": 76.6575573531,
            "estimated_diameter_max": 171.4115092306
        },
        "miles": {
            "estimated_diameter_min": 0.0476327831,
            "estimated_diameter_max": 0.1065101409
        },
        "feet": {
            "estimated_diameter_min": 251.5011804664,
            "estimated_diameter_max": 562.3737359442
        }
    },
    "is_potentially_hazardous_asteroid": false,
    "close_approach_data": [
        {
            "close_approach_date": "1991-10-27",
            "close_approach_date_full": "1991-Oct-27 18:26",
            "epoch_date_close_approach": 688587960000,
            "relative_velocity": {
                "kilometers_per_second": "15.6131901046",
                "kilometers_per_hour": "56207.4843766187",
                "miles_per_hour": "34925.1449450162"
            },
            "miss_distance": {
                "astronomical": "0.2416815259",
                "lunar": "94.0141135751",
                "kilometers": "36155041.492989833",
                "miles": "22465701.0353443754"
            },
            "orbiting_body": "Earth"
        },
        {
            "close_approach_date": "2014-09-23",
            "close_approach_date_full": "2014-Sep-23 11:01",
            "epoch_date_close_approach": 1411470060000,
            "relative_velocity": {
                "kilometers_per_second": "8.2607617507",
                "kilometers_per_hour": "29738.7423024006",
                "miles_per_hour": "18478.4979600667"
            },
            "miss_distance": {
                "astronomical": "0.041747046",
                "lunar": "16.239600894",
                "kilometers": "6245269.16039202",
                "miles": "3880630.309049076"
            },
            "orbiting_body": "Earth"
        },
        {
            "close_approach_date": "2016-09-06",
            "close_approach_date_full": "2016-Sep-06 22:45",
            "epoch_date_close_approach": 1473201900000,
            "relative_velocity": {
                "kilometers_per_second": "3.063152477",
                "kilometers_per_hour": "11027.3489170662",
                "miles_per_hour": "6851.9657757182"
            },
            "miss_distance": {
                "astronomical": "1.6919302352",
                "lunar": "658.1608614928",
                "kilometers": "253109159.374519024",
                "miles": "157274738.7087855712"
            },
            "orbiting_body": "Juptr"
        },
        {
            "close_approach_date": "2121-10-24",
            "close_approach_date_full": "2121-Oct-24 15:57",
            "epoch_date_close_approach": 4790764620000,
            "relative_velocity": {
                "kilometers_per_second": "13.7437981288",
                "kilometers_per_hour": "49477.6732638593",
                "miles_per_hour": "30743.5020344241"
            },
            "miss_distance": {
                "astronomical": "0.1983638178",
                "lunar": "77.1635251242",
                "kilometers": "29674804.627948086",
                "miles": "18439068.5648361468"
            },
            "orbiting_body": "Earth"
        }
    ],
    "orbital_data": {
        "orbit_id": "14",
        "orbit_determination_date": "2017-04-06 08:38:12",
        "first_observation_date": "2014-10-04",
        "last_observation_date": "2014-11-23",
        "data_arc_in_days": 50,
        "observations_used": 103,
        "orbit_uncertainty": "6",
        "minimum_orbit_intersection": ".0492784",
        "jupiter_tisserand_invariant": "3.237",
        "epoch_osculation": "2459000.5",
        "eccentricity": ".5744915389124901",
        "semi_major_axis": "2.453472164260114",
        "inclination": "6.814514791965115",
        "ascending_node_longitude": "10.53578370608623",
        "orbital_period": "1403.686520680631",
        "perihelion_distance": "1.043973164935364",
        "perihelion_argument": "342.4840802362125",
        "aphelion_distance": "3.862971163584865",
        "perihelion_time": "2458326.009382885648",
        "mean_anomaly": "172.9849354423009",
        "mean_motion": ".2564675194183957",
        "equinox": "J2000",
        "orbit_class": {
            "orbit_class_type": "AMO",
            "orbit_class_description": "Near-Earth asteroid orbits similar to that of 1221 Amor",
            "orbit_class_range": "1.017 AU < q (perihelion) < 1.3 AU"
        }
    },
    "is_sentry_object": false
}